{
  "type": "FeatureCollection",
  "features": [
    {
      "type": "Feature",
      "properties": {
        "norad_id": 30066,
        "name": "FENGYUN 1C DEB",
        "group": "fengyun-1c-debris",
        "lat": 42.17214133538059,
        "lon": -18.631485920748187,
        "alt_km": 909.0039670920005,
        "timestamp": "2025-12-25T03:55:56.631439+00:00",
        "meta_object_name": "FENGYUN 1C DEB",
        "meta_object_id": "1999-025PT",
        "meta_epoch": "2025-12-24T13:04:20.561952",
        "meta_mean_motion": 14.1911721,
        "meta_eccentricity": 0.01169,
        "meta_inclination": 98.6352,
        "meta_ra_of_asc_node": 348.6773,
        "meta_arg_of_pericenter": 227.5625,
        "meta_mean_anomaly": 253.7876,
        "meta_ephemeris_type": 0,
        "meta_classification_type": "U",
        "meta_norad_cat_id": 30066,
        "meta_element_set_no": 999,
        "meta_rev_at_epoch": 98004,
        "meta_bstar": 0.00013151,
        "meta_mean_motion_dot": 2.51e-06,
        "meta_mean_motion_ddot": 0,
        "tle_line1": "1 30066U 99025PT  25358.54468243  .00000251  00000+0  13151-3 0  9990",
        "tle_line2": "2 30066  98.6352 348.6773 0116900 227.5625 253.7876 14.19117210980040"
      },
      "geometry": {
        "type": "Point",
        "coordinates": [
          -18.631485920748187,
          42.17214133538059
        ]
      }
    },
    {
      "type": "Feature",
      "properties": {
        "norad_id": 30067,
        "name": "FENGYUN 1C DEB",
        "group": "fengyun-1c-debris",
        "lat": -15.552466006970882,
        "lon": -111.9187843737148,
        "alt_km": 643.3700319539676,
        "timestamp": "2025-12-25T03:55:56.631449+00:00",
        "meta_object_name": "FENGYUN 1C DEB",
        "meta_object_id": "1999-025PU",
        "meta_epoch": "2025-12-24T16:38:33.146016",
        "meta_mean_motion": 14.43723806,
        "meta_eccentricity": 0.0151221,
        "meta_inclination": 98.7655,
        "meta_ra_of_asc_node": 245.1357,
        "meta_arg_of_pericenter": 342.4323,
        "meta_mean_anomaly": 78.3351,
        "meta_ephemeris_type": 0,
        "meta_classification_type": "U",
        "meta_norad_cat_id": 30067,
        "meta_element_set_no": 999,
        "meta_rev_at_epoch": 99371,
        "meta_bstar": 0.00042761,
        "meta_mean_motion_dot": 1.616e-05,
        "meta_mean_motion_ddot": 0,
        "tle_line1": "1 30067U 99025PU  25358.69343919  .00001616  00000+0  42761-3 0  9994",
        "tle_line2": "2 30067  98.7655 245.1357 0151221 342.4323  78.3351 14.43723806993712"
      },
      "geometry": {
        "type": "Point",
        "coordinates": [
          -111.9187843737148,
          -15.552466006970882
        ]
      }
    },
    {
      "type": "Feature",
      "properties": {
        "norad_id": 30068,
        "name": "FENGYUN 1C DEB",
        "group": "fengyun-1c-debris",
        "lat": -66.58387948653457,
        "lon": 145.86248838746008,
        "alt_km": 800.2067418769375,
        "timestamp": "2025-12-25T03:55:56.631459+00:00",
        "meta_object_name": "FENGYUN 1C DEB",
        "meta_object_id": "1999-025PV",
        "meta_epoch": "2025-12-24T16:32:26.473056",
        "meta_mean_motion": 14.12057692,
        "meta_eccentricity": 0.0189418,
        "meta_inclination": 98.7375,
        "meta_ra_of_asc_node": 346.1999,
        "meta_arg_of_pericenter": 314.8035,
        "meta_mean_anomaly": 43.7868,
        "meta_ephemeris_type": 0,
        "meta_classification_type": "U",
        "meta_norad_cat_id": 30068,
        "meta_element_set_no": 999,
        "meta_rev_at_epoch": 97512,
        "meta_bstar": 0.00018891,
        "meta_mean_motion_dot": 3.65e-06,
        "meta_mean_motion_ddot": 0,
        "tle_line1": "1 30068U 99025PV  25358.68919529  .00000365  00000+0  18891-3 0  9997",
        "tle_line2": "2 30068  98.7375 346.1999 0189418 314.8035  43.7868 14.12057692975121"
      },
      "geometry": {
        "type": "Point",
        "coordinates": [
          145.86248838746008,
          -66.58387948653457
        ]
      }
    },
    {
      "type": "Feature",
      "properties": {
        "norad_id": 30069,
        "name": "FENGYUN 1C DEB",
        "group": "fengyun-1c-debris",
        "lat": 27.16890640475574,
        "lon": -23.91556514195645,
        "alt_km": 839.0987234881168,
        "timestamp": "2025-12-25T03:55:56.631470+00:00",
        "meta_object_name": "FENGYUN 1C DEB",
        "meta_object_id": "1999-025PW",
        "meta_epoch": "2025-12-23T21:19:43.871808",
        "meta_mean_motion": 14.05234719,
        "meta_eccentricity": 0.0049467,
        "meta_inclination": 98.8024,
        "meta_ra_of_asc_node": 339.4082,
        "meta_arg_of_pericenter": 22.3199,
        "meta_mean_anomaly": 38.0093,
        "meta_ephemeris_type": 0,
        "meta_classification_type": "U",
        "meta_norad_cat_id": 30069,
        "meta_element_set_no": 999,
        "meta_rev_at_epoch": 97003,
        "meta_bstar": 0.00036817,
        "meta_mean_motion_dot": 5.59e-06,
        "meta_mean_motion_ddot": 0,
        "tle_line1": "1 30069U 99025PW  25357.88870222  .00000559  00000+0  36817-3 0  9998",
        "tle_line2": "2 30069  98.8024 339.4082 0049467  22.3199  38.0093 14.05234719970034"
      },
      "geometry": {
        "type": "Point",
        "coordinates": [
          -23.91556514195645,
          27.16890640475574
        ]
      }
    },
    {
      "type": "Feature",
      "properties": {
        "norad_id": 30070,
        "name": "FENGYUN 1C DEB",
        "group": "fengyun-1c-debris",
        "lat": 31.111643328344805,
        "lon": 52.79911877458361,
        "alt_km": 925.5210071419051,
        "timestamp": "2025-12-25T03:55:56.631480+00:00",
        "meta_object_name": "FENGYUN 1C DEB",
        "meta_object_id": "1999-025PX",
        "meta_epoch": "2025-12-24T04:15:43.869312",
        "meta_mean_motion": 14.10001554,
        "meta_eccentricity": 0.03279415,
        "meta_inclination": 98.2848,
        "meta_ra_of_asc_node": 56.9336,
        "meta_arg_of_pericenter": 285.9791,
        "meta_mean_anomaly": 138.5631,
        "meta_ephemeris_type": 0,
        "meta_classification_type": "U",
        "meta_norad_cat_id": 30070,
        "meta_element_set_no": 999,
        "meta_rev_at_epoch": 96040,
        "meta_bstar": 0.0016366973,
        "meta_mean_motion_dot": 4.723e-05,
        "meta_mean_motion_ddot": 0,
        "tle_line1": "1 30070U 99025PX  25358.17759108  .00004723  00000+0  16367-2 0  9996",
        "tle_line2": "2 30070  98.2848  56.9336 0327941 285.9791 138.5631 14.10001554960407"
      },
      "geometry": {
        "type": "Point",
        "coordinates": [
          52.79911877458361,
          31.111643328344805
        ]
      }
    },
    {
      "type": "Feature",
      "properties": {
        "norad_id": 30071,
        "name": "FENGYUN 1C DEB",
        "group": "fengyun-1c-debris",
        "lat": -21.713504842706186,
        "lon": 102.29233695468183,
        "alt_km": 724.9889074860212,
        "timestamp": "2025-12-25T03:55:56.631491+00:00",
        "meta_object_name": "FENGYUN 1C DEB",
        "meta_object_id": "1999-025PY",
        "meta_epoch": "2025-12-24T05:09:57.670848",
        "meta_mean_motion": 14.52342438,
        "meta_eccentricity": 0.00381895,
        "meta_inclination": 98.6588,
        "meta_ra_of_asc_node": 97.8352,
        "meta_arg_of_pericenter": 74.9177,
        "meta_mean_anomaly": 346.822,
        "meta_ephemeris_type": 0,
        "meta_classification_type": "U",
        "meta_norad_cat_id": 30071,
        "meta_element_set_no": 999,
        "meta_rev_at_epoch": 98393,
        "meta_bstar": 0.0024427121,
        "meta_mean_motion_dot": 9.999e-05,
        "meta_mean_motion_ddot": 0,
        "tle_line1": "1 30071U 99025PY  25358.21525082  .00009999  00000+0  24427-2 0  9990",
        "tle_line2": "2 30071  98.6588  97.8352 0038189  74.9177 346.8220 14.52342438983938"
      },
      "geometry": {
        "type": "Point",
        "coordinates": [
          102.29233695468183,
          -21.713504842706186
        ]
      }
    },
    {
      "type": "Feature",
      "properties": {
        "norad_id": 30072,
        "name": "FENGYUN 1C DEB",
        "group": "fengyun-1c-debris",
        "lat": 20.2308702615222,
        "lon": 144.7490529993926,
        "alt_km": 799.7154602806104,
        "timestamp": "2025-12-25T03:55:56.631501+00:00",
        "meta_object_name": "FENGYUN 1C DEB",
        "meta_object_id": "1999-025PZ",
        "meta_epoch": "2025-12-23T21:46:39.071424",
        "meta_mean_motion": 14.37978191,
        "meta_eccentricity": 0.0060157,
        "meta_inclination": 99.0769,
        "meta_ra_of_asc_node": 146.8001,
        "meta_arg_of_pericenter": 240.3637,
        "meta_mean_anomaly": 119.1548,
        "meta_ephemeris_type": 0,
        "meta_classification_type": "U",
        "meta_norad_cat_id": 30072,
        "meta_element_set_no": 999,
        "meta_rev_at_epoch": 97331,
        "meta_bstar": 0.0032942,
        "meta_mean_motion_dot": 0.00010136,
        "meta_mean_motion_ddot": 0,
        "tle_line1": "1 30072U 99025PZ  25357.90739666  .00010136  00000+0  32942-2 0  9997",
        "tle_line2": "2 30072  99.0769 146.8001 0060157 240.3637 119.1548 14.37978191973310"
      },
      "geometry": {
        "type": "Point",
        "coordinates": [
          144.7490529993926,
          20.2308702615222
        ]
      }
    }
  ]
}